IRIDIUM 159             
1 43578U 18061K   25052.91974935  .00000089  00000+0  24664-4 0  9996
2 43578  86.3915 257.3675 0001890  93.0823 267.0589 14.34218279344547
IRIDIUM 180             
1 43922U 19002A   25052.91924745 -.00000032  00000+0 -18610-4 0  9993
2 43922  86.4020 194.2818 0002031  98.5783 261.5643 14.34217295320157
IRIDIUM 176             
1 43923U 19002B   25052.83118823  .00000097  00000+0  11428-4 0  9996
2 43923  86.6147 194.3204 0001824 114.3388 245.8019 14.72221064328574
IRIDIUM 168             
1 43924U 19002C   25052.91290386  .00000040  00000+0  70464-5 0  9995
2 43924  86.4021 194.3479 0001985  98.7384 261.4037 14.34217869320131
IRIDIUM 173             
1 43925U 19002D   25052.90021706  .00000549  00000+0  18883-3 0  9992
2 43925  86.4017 194.2618 0002134  97.2086 262.9353 14.34217962320110
IRIDIUM 169             
1 43926U 19002E   25052.90029249  .00000300  00000+0  91478-4 0  9990
2 43926  86.4212 225.8478 0003664  99.7711 260.3901 14.38590841321176
IRIDIUM 172             
1 43927U 19002F   25052.89387334  .00000214  00000+0  69254-4 0  9992
2 43927  86.4018 194.2708 0001908 100.3176 259.8235 14.34215256320126
IRIDIUM 175             
1 43928U 19002G   25052.82596238  .00002231  00000+0  34977-3 0  9995
2 43928  86.1554 153.4329 0003023  83.8546 276.3015 14.72247332328569
